[{"OBJECT_NAME":"STARLINK-4386","OBJECT_ID":"2022-105B","EPOCH":"2026-03-09T15:28:07.769568","MEAN_MOTION":15.05650293,"ECCENTRICITY":0.0002183,"INCLINATION":97.6023,"RA_OF_ASC_NODE":311.223,"ARG_OF_PERICENTER":74.0252,"MEAN_ANOMALY":286.1215,"EPHEMERIS_TYPE":0,"CLASSIFICATION_TYPE":"U","NORAD_CAT_ID":53649,"ELEMENT_SET_NO":999,"REV_AT_EPOCH":19329,"BSTAR":-1.5178e-5,"MEAN_MOTION_DOT":-2.8e-6,"MEAN_MOTION_DDOT":0},{"OBJECT_NAME":"STUDSAT","OBJECT_ID":"2010-035B","EPOCH":"2026-03-09T18:37:00.077376","MEAN_MOTION":15.04045903,"ECCENTRICITY":0.00117838,"INCLINATION":98.1026,"RA_OF_ASC_NODE":330.9975,"ARG_OF_PERICENTER":15.8359,"MEAN_ANOMALY":344.3232,"EPHEMERIS_TYPE":0,"CLASSIFICATION_TYPE":"U","NORAD_CAT_ID":36796,"ELEMENT_SET_NO":999,"REV_AT_EPOCH":85020,"BSTAR":0.00039642444,"MEAN_MOTION_DOT":5.425e-5,"MEAN_MOTION_DDOT":0}]
